SAUDISAT 1C (SO-50)     
1 27607U 02058C   24157.50270784  .00002498  00000+0  35424-3 0  9992
2 27607  64.5556 257.4620 0027449 119.0083 241.3777 14.78969893154598
SAUDISAT 2              
1 28371U 04025F   24157.49990214  .00000745  00000+0  18159-3 0  9991
2 28371  98.4822 130.4406 0026311  56.7890 303.5824 14.55486757 57809
SAUDISAT 3              
1 31118U 07012B   24157.59340241  .00000682  00000+0  12114-3 0  9998
2 31118  98.0558 101.3621 0016286  69.2022 291.0927 14.70223476918733
PISAT                   
1 41784U 16059B   24157.34480704  .00001912  00000+0  35565-3 0  9993
2 41784  97.8343 179.8953 0031815  53.1337 307.2777 14.65897732410923
FLYING LAPTOP           
1 42831U 17042G   24157.60350770  .00002970  00000+0  27531-3 0  9997
2 42831  97.3855 339.2218 0014355 113.1476 247.1260 14.95099122375409
SALSAT                  
1 46495U 20068K   24157.43648577  .00008767  00000+0  49947-3 0  9990
2 46495  97.8155 116.4343 0013738   2.3221 357.8070 15.12982461202530
